[
    {
        "Altitude(m)": 605470.7339258908,
        "Argument of Periapsis(deg)": 0.0,
        "Eccentricity": 0.0,
        "Inclination(deg)": 60.0,
        "Latitude(deg)": 27.98802408420909,
        "Longitude(deg)": -87.73705481844387,
        "Mean Anomaly(deg)": 147.2727,
        "RAAN(deg)": 210.0,
        "Satellite Name": "Test1 933",
        "Satellite Number": 933,
        "Semi-Major Axis(m)": 6980739.136638005,
        "Time(s)": 0
    },
    {
        "Altitude(m)": 605395.7725069749,
        "Argument of Periapsis(deg)": 0.00010418945913296404,
        "Eccentricity": 0.0,
        "Inclination(deg)": 60.0,
        "Latitude(deg)": 27.47371478957604,
        "Longitude(deg)": -87.38386757790663,
        "Mean Anomaly(deg)": 147.89280614546186,
        "RAAN(deg)": 209.99957995086027,
        "Satellite Name": "Test1 933",
        "Satellite Number": 933,
        "Semi-Major Axis(m)": 6980739.136638005,
        "Time(s)": 10
    }
]